{"fetched_at":"2026-07-08T07:04:16.930Z","source":"https://celestrak.org/NORAD/elements/gp.php?NAME=SENTINEL&FORMAT=JSON","constellation":"sentinel-5p","records":[{"OBJECT_NAME":"SENTINEL-5P","OBJECT_ID":"2017-064A","EPOCH":"2026-07-07T18:48:37.631232","CLASSIFICATION_TYPE":"U","MEAN_MOTION":14.19522464,"ECCENTRICITY":0.0001095,"INCLINATION":98.7928,"RA_OF_ASC_NODE":130.7689,"ARG_OF_PERICENTER":92.2058,"MEAN_ANOMALY":267.9243,"EPHEMERIS_TYPE":0,"NORAD_CAT_ID":42969,"ELEMENT_SET_NO":999,"REV_AT_EPOCH":45248,"BSTAR":0.000037483,"MEAN_MOTION_DOT":3.5e-7,"MEAN_MOTION_DDOT":0}]}
