SENTINEL-5P             
1 42969U 17064A   26188.78376888  .00000035  00000+0  37483-4 0  9994
2 42969  98.7928 130.7689 0001095  92.2058 267.9243 14.19522464452484
